0 BEIDOU 1B
1 26643U 00082A   13281.88177217 -.00000009  00000-0  10000-3 0  3513
2 26643 005.6293 059.9920 0080964 335.1842 024.4977 00.99248612 46863
0 BEIDOU 1B
1 26643U 00082A   13282.88928887  .00000000  00000-0  10000-3 0  3522
2 26643 005.6327 059.9750 0081026 335.0406 024.6407 00.99244687 46876
0 BEIDOU 1B
1 26643U 00082A   13283.89682705  .00000029  00000-0  10000-3 0  3521
2 26643 005.6334 059.9715 0080903 335.1897 024.4896 00.99248379 46886
0 BEIDOU 1B
1 26643U 00082A   13285.91192219  .00000056  00000-0  10000-3 0  3533
2 26643 005.6376 059.9509 0080896 335.2073 024.4837 00.99248429 46905
0 BEIDOU 1B
1 26643U 00082A   13287.92697513  .00000074  00000-0  10000-3 0  3544
2 26643 005.6417 059.9305 0080893 335.2550 024.4336 00.99248748 46922
0 BEIDOU 1B
1 26643U 00082A   13289.94203751  .00000000  00000-0  10000-3 0  3566
2 26643 005.6474 059.9140 0080194 335.0581 024.6119 00.99245542 46940
0 BEIDOU 1B
1 26643U 00082A   13290.94941521  .00000079  00000-0  10000-3 0  3557
2 26643 005.6478 059.9003 0080831 335.3197 024.3209 00.99249658 46956
0 BEIDOU 1B
1 26643U 00082A   13292.96435009  .00000065  00000-0  10000-3 0  3566
2 26643 005.6521 059.8797 0080620 335.2750 024.3277 00.99250448 46970
0 BEIDOU 1B
1 26643U 00082A   13294.97930160  .00000041  00000-0  10000-3 0  3572
2 26643 005.6561 059.8596 0080591 335.3113 024.2710 00.99251373 46993
